OBJECT_NAME,OBJECT_ID,EPOCH,MEAN_MOTION,ECCENTRICITY,INCLINATION,RA_OF_ASC_NODE,ARG_OF_PERICENTER,MEAN_ANOMALY,EPHEMERIS_TYPE,CLASSIFICATION_TYPE,NORAD_CAT_ID,ELEMENT_SET_NO,REV_AT_EPOCH,BSTAR,MEAN_MOTION_DOT,MEAN_MOTION_DDOT
SALSAT,2020-068K,2026-06-10T12:56:05.145216,15.29703223,.00086211,97.8853,164.1992,335.4923,24.5905,0,U,46495,999,31434,.24329255E-3,.6924E-4,0
ICEYE-X6,2020-068M,2026-06-10T14:34:07.264992,15.04481293,.00084822,98.0960,154.9639,109.0882,251.1262,0,U,46497,999,31224,.21553233E-3,.295E-4,0
NETSAT-4,2020-068U,2026-06-10T13:52:29.180928,15.43644527,.00046982,97.8607,169.2885,6.6618,353.4690,0,U,46504,999,31475,.35379708E-3,.15855E-3,0
NETSAT-3,2020-068V,2026-06-10T13:54:10.939392,15.42448030,.00051605,97.8657,167.5147,25.3166,334.8332,0,U,46505,999,31466,.37330121E-3,.16076E-3,0
NETSAT-1,2020-068W,2026-06-10T13:11:22.200864,15.34485984,.00058024,97.8743,161.8916,51.2758,308.9001,0,U,46506,999,31428,.35566339E-3,.11804E-3,0
NETSAT-2,2020-068X,2026-06-10T13:29:53.567520,15.45713642,.00043388,97.8620,169.1422,44.2727,315.8867,0,U,46507,999,31471,.42482768E-3,.20456E-3,0
TIANQI-6,2020-076D,2026-06-10T12:19:59.777184,15.07137967,.00092297,34.9988,89.4180,112.9075,247.2609,0,U,46810,999,30757,.22210022E-3,.3382E-4,0
KSM1-C,2020-081B,2026-06-10T07:01:35.329728,15.26623766,.00019919,36.8944,101.5020,210.7189,149.3444,0,U,46906,999,30811,.33432074E-3,.8879E-4,0
KSM1-D,2020-081C,2026-06-10T13:08:07.363680,15.24625484,.0004533,36.8947,108.8123,222.7583,137.2813,0,U,46907,999,30808,.31838176E-3,.7953E-4,0
KSM1-A,2020-081H,2026-06-10T07:01:08.544000,15.25850116,.0004737,36.8953,103.8462,263.4789,96.5420,0,U,46912,999,30812,.35124E-3,.9118E-4,0
R2,2020-081J,2026-06-09T03:11:45.827520,15.25316026,.00084913,36.8973,110.9294,224.5897,135.4169,0,U,46913,999,31075,.25956339E-3,.6606E-4,0
KSM1-B,2020-081K,2026-06-10T13:11:46.377312,15.24411954,.0006717,36.9006,109.3857,233.9714,126.0413,0,U,46914,999,31117,.1752575E-3,.4304E-4,0
GONETS-M 20,2020-091A,2026-06-10T15:31:22.908288,12.42893416,.0020891,82.5041,306.5025,192.1317,167.9262,0,U,47227,999,25026,.1401291E-3,.29E-6,0
GONETS-M 21,2020-091B,2026-06-10T14:53:41.875584,12.42886531,.00144476,82.4966,305.2298,205.4224,154.6146,0,U,47228,999,25025,.25972724E-3,.46E-6,0
GONETS-M 22,2020-091C,2026-06-10T16:10:54.869088,12.42892751,.00218295,82.5023,306.0921,187.4610,172.6148,0,U,47229,999,25021,.5032289E-3,.8E-6,0
CUBEL,2021-006AM,2026-06-08T15:44:19.785984,15.40916074,.00063181,97.2333,210.3218,187.3006,172.8150,0,U,47448,999,29844,.23397477E-3,.9545E-4,0
ARKTIKA-M 1,2021-016A,2026-06-09T12:22:37.726752,2.00625436,.7285674,63.2417,58.7595,269.8905,14.6803,0,U,47719,999,3863,0,-.149E-5,0
STARLINK-2342,2021-021Z,2026-06-10T16:00:03.000096,15.79237487,.00016402,53.1551,180.7236,67.0906,324.1584,0,U,47883,999,589,.28947856E-3,.52661E-3,0
GRUS-1B,2021-022C,2026-06-10T15:14:14.202240,14.98984313,.00162358,97.5413,45.0480,352.1932,7.9036,0,U,47934,999,28491,.14126066E-3,.1657E-4,0
2021-022F,2021-022F,2026-06-10T15:46:49.488672,15.32944267,.00115999,97.3902,62.3604,111.9129,248.3348,0,U,47937,999,28871,.24592953E-3,.7763E-4,0
UNISAT-7,2021-022P,2026-06-10T12:48:06.090912,15.40287665,.00112022,97.3900,66.3889,97.6653,262.5866,0,U,47945,999,28883,.32633777E-3,.13093E-3,0
2021-022X,2021-022X,2026-06-10T13:54:42.996384,15.73251698,.00076053,97.3915,78.1930,91.9727,268.2408,0,U,47953,999,28946,.6717183E-3,.93235E-3,0
GLOBAL-9,2021-023G,2026-06-10T14:24:24.067584,15.46352175,.00050937,44.9819,287.5442,284.7733,75.2593,0,U,47971,999,29392,.37179921E-3,.18461E-3,0
AII-BRAVO,2021-034C,2026-06-10T15:10:07.257216,15.03428491,.00046846,97.5626,216.6906,289.0770,70.9948,0,U,48270,999,27863,.31402225E-3,.4215E-4,0
TYVAK-182A,2021-034D,2026-06-10T14:53:01.275360,15.06110668,.00057147,97.5734,220.6517,11.9879,348.1483,0,U,48271,999,27884,.28683982E-3,.4133E-4,0
CSS (TIANHE),2021-035A,2026-06-10T13:52:07.326048,15.60534794,.00083266,41.4694,2.2172,24.2094,335.9134,0,U,48274,999,29213,.2570347E-3,.21572E-3,0
TYVAK-0130,2021-041BF,2026-06-09T23:29:47.719392,15.27472919,.00108565,52.9976,59.5580,140.9745,219.2038,0,U,48606,999,27928,.2718079E-3,.7069E-4,0
HAIYANG-2D,2021-043A,2026-06-10T15:23:33.770112,13.83375445,.00113936,65.9998,320.9970,269.9528,90.0235,0,U,48621,999,25564,.40427669E-4,-.37E-6,0
2021-050D,2021-050D,2026-06-10T15:14:53.824416,15.23266156,.00040161,97.3336,237.8207,295.4640,64.6181,0,U,48843,999,27796,.24401671E-3,.5715E-4,0
TYVAK-0173,2021-059P,2026-06-10T04:12:13.372128,14.81867765,.0010673,96.0086,239.2747,60.4265,299.8015,0,U,48892,999,26720,.19929E-3,.1545E-4,0
MANDRAKE 2 ABLE,2021-059AE,2026-06-10T14:37:50.666880,15.54724840,.00050229,97.7041,350.8940,30.0661,330.0879,0,U,48907,999,27610,.29419327E-3,.19447E-3,0
MANDRAKE 2 BAKER,2021-059AF,2026-06-10T11:54:32.329728,15.59220068,.00035538,97.7011,353.5976,32.1352,328.0120,0,U,48908,999,27625,.31761829E-3,.24836E-3,0
PACE-1,2021-059AG,2026-06-10T12:01:47.368416,15.78719432,.00007026,97.6769,358.8941,315.7445,44.3765,0,U,48909,999,27674,.42589042E-3,.74704E-3,0
YAM-3,2021-059AN,2026-06-10T14:31:22.558080,15.48408808,.00056094,97.6996,348.1315,32.9515,327.2083,0,U,48915,999,27597,.20033314E-3,.10525E-3,0
FARADAY_PHOENIX,2021-059AX,2026-06-10T11:49:29.686944,15.76766143,.00024281,97.6824,358.7848,336.8087,23.3068,0,U,48924,999,27660,.68047218E-3,.110004E-2,0
DEMO8 (TENZING),2021-059CA,2026-06-10T11:36:51.585696,15.54742362,.00068519,97.7033,354.3946,20.4649,339.6877,0,U,48951,999,27626,.28501629E-3,.18857E-3,0
NAPA-2,2021-059CN,2026-06-09T05:49:56.617824,15.95777302,.00026691,97.6730,358.3052,251.6260,108.4724,0,U,48963,999,27654,.72515668E-3,.290503E-2,.35483944E-4
FENGYUN 3E,2021-062A,2026-06-10T13:52:02.270784,14.19902915,.00027629,98.7496,165.0595,96.1480,264.0011,0,U,49008,999,25564,-.19953749E-4,-.86E-6,0
ISS (NAUKA),2021-066A,2026-06-10T09:59:31.702560,15.49162374,.00058814,51.6361,333.6061,172.3680,187.7399,0,U,49044,999,57076,.10451669E-3,.5345E-4,0
STARLINK-3100,2021-082Q,2026-06-10T10:20:41.781696,14.98323995,.00030319,70.0005,60.6142,269.8479,90.2332,0,U,49144,999,25987,-.11356557E-3,-.1448E-4,0
CUTE,2021-088D,2026-06-10T12:37:01.193664,15.91259664,.00079041,97.4173,260.1851,244.1162,115.9297,0,U,49263,999,26149,.47533467E-3,.150394E-2,.10455888E-4
2021-091B,2021-091B,2026-06-10T14:27:21.673152,15.18521461,.00148302,97.4478,349.2784,66.3599,293.9190,0,U,49316,999,25798,.17466115E-3,.3546E-4,0
SDGSAT 1,2021-100A,2026-06-10T13:57:19.685376,15.19896552,.00068704,97.2645,208.7760,327.5993,32.4819,0,U,49387,999,25491,.11091439E-3,.2317E-4,0
TEIKYOSAT-4 (OORURI),2021-102B,2026-06-10T13:23:34.128960,15.09486131,.0010901,97.3672,191.2990,322.3746,37.6720,0,U,49396,999,25172,.13304785E-3,.2073E-4,0
Z-SAT,2021-102E,2026-06-10T14:34:22.367712,15.18215610,.00146994,97.3334,197.1298,270.5023,89.4527,0,U,49399,999,25244,.16548465E-3,.3327E-4,0
HIBARI,2021-102F,2026-06-10T14:29:08.786688,15.31596471,.00107001,97.3246,207.5823,215.5975,144.4554,0,U,49400,999,25318,.31897658E-3,.9674E-4,0
KOSEN-1,2021-102H,2026-06-10T09:23:11.603328,15.26741290,.00125249,97.3194,203.6805,225.8165,134.2046,0,U,49402,999,25298,.27000744E-3,.7043E-4,0
GLOBAL-14,2021-106A,2026-06-10T04:38:28.190112,15.50255429,.0016904,42.0056,332.6349,330.7787,29.2110,0,U,49469,999,25704,.44216E-3,.25574E-3,0
GAOFEN-3 02,2021-109A,2026-06-10T14:19:20.260128,14.42216291,.00033372,98.4092,169.7873,32.6403,327.4993,0,U,49495,999,23936,.30978506E-4,.59E-6,0
GLOBAL-12,2021-115BA,2026-06-10T09:10:29.892288,15.53158737,.00034133,53.1947,77.2500,56.1264,304.0072,0,U,49772,999,25484,.509658E-3,.32188E-3,0
GLOBAL-13,2021-115BB,2026-06-10T12:36:40.860288,15.45785257,.00041097,53.1973,86.2490,94.5250,265.6227,0,U,49773,999,25473,.38816107E-3,.18718E-3,0
GLOBAL-17,2021-120A,2026-06-10T01:47:37.741632,15.51879539,.00145581,41.9934,91.6632,210.2160,149.7846,0,U,49949,999,25379,.4530369E-3,.2776E-3,0
GLOBAL-16,2021-120B,2026-06-10T12:42:53.671968,15.49858065,.00125132,41.9943,92.5606,205.8313,154.1907,0,U,49950,999,25381,.39510293E-3,.22428E-3,0
XW-3 (CAS-9),2021-131B,2026-06-10T14:22:00.179616,14.41351510,.0005274,98.4971,254.0240,112.0154,248.1596,0,U,50466,999,23416,.12436941E-3,.359E-5,0
ION SCV-004,2022-002K,2026-06-10T15:08:33.804384,15.30386687,.00078863,97.2842,219.4126,30.0910,330.0783,0,U,50993,999,24429,.16069882E-3,.4651E-4,0
ETV-A1,2022-002CE,2026-06-10T15:33:50.837184,15.40544504,.00052508,97.2883,227.9730,26.9744,333.1775,0,U,51060,999,24483,.24258403E-3,.9775E-4,0
BRO-5,2022-002CF,2026-06-10T14:08:42.360288,15.47003867,.00041581,97.3004,235.2012,0.7629,359.3626,0,U,51061,999,24523,.49464186E-3,.24936E-3,0
LUDI TANCE 1-01A (L-SAR 01A),2022-007A,2026-06-10T14:13:46.628256,14.88413716,.00015959,97.8097,169.1066,90.9449,269.1951,0,U,51284,999,23749,.62291324E-4,.523E-5,0
LUDI TANCE 1-01B (L-SAR 01B),2022-018A,2026-06-10T15:02:09.207744,14.88410217,.00015955,97.8103,169.1357,90.9539,269.1861,0,U,51822,999,23273,.65817884E-4,.556E-5,0
2022-019D,2022-019D,2026-06-10T14:59:39.590592,15.70089890,.00057098,97.3666,253.7565,161.1408,199.0066,0,U,51827,999,23867,.58977972E-3,.71446E-3,0
2022-019J,2022-019J,2026-06-10T15:00:18.734976,15.20414850,.00069598,97.3431,224.6053,248.9930,111.0561,0,U,51832,999,23680,.12092166E-3,.2569E-4,0
2022-023F,2022-023F,2026-06-08T17:05:24.823104,15.17938636,.01293236,63.4454,302.2925,342.7663,16.9077,0,U,51951,999,23642,.62557508E-3,.15685E-3,0
CZ-4C R/B,2022-027B,2026-06-10T11:57:06.151968,13.65479604,.02319864,63.3941,76.7317,22.6448,338.4625,0,U,52085,999,21112,.45945199E-4,-.5E-6,0
MERIDIAN 10,2022-030A,2026-06-09T11:50:18.478752,2.00614478,.6781599,62.6777,141.6233,272.8602,17.6738,0,U,52145,999,3087,0,.249E-5,0
OMNI-L1,2022-033A,2026-06-10T05:28:19.788384,14.82723773,.00040453,97.8393,240.5404,318.5350,41.5556,0,U,52157,999,22642,.22971847E-3,.1802E-4,0
ENMAP,2022-033C,2026-06-10T14:02:38.313024,14.74982179,.00014228,97.9788,243.9289,84.7038,275.4333,0,U,52159,999,22568,.58895544E-4,.346E-5,0
